     3.02           N: GNSS NAV DATA    G: GPS              RINEX VERSION / TYPE                                                
Версия от 220825                        20240829 01:06:08UTCPGM / RUN BY / DATE                                                 
GPUT -0.9313225746D-09-0.710542736D-14 233472 2329          TIME SYSTEM CORR
                                                            END OF HEADER                                                       
G07 2024 08 25 09 59 44-0.466462224722D-04 0.545696821064D-11 0.000000000000D+00
     0.100000000000D+01-0.687500000000D+01 0.477091301339D-08 0.741940808173D+00
    -0.286847352982D-06 0.187160425121D-01 0.951625406742D-05 0.515361296082D+04
     0.359840000000D+05-0.277534127235D-06-0.274697227623D+01 0.596046447754D-07
     0.950626451076D+00 0.195468750000D+03-0.210400373657D+01-0.827713048999D-08
    -0.441804117201D-09 0.100000000000D+01 0.232900000000D+04 0.000000000000D+00
     0.200000000000D+01 0.000000000000D+00-0.111758708954D-07 0.100000000000D+01
     0.312000000000D+05
G24 2024 08 25 09 59 44-0.486641656607D-03-0.341060513165D-12 0.000000000000D+00
     0.400000000000D+01-0.229062500000D+02 0.514807158070D-08 0.170237566123D+01
    -0.132620334625D-05 0.157523910748D-01 0.888854265213D-05 0.515370085716D+04
     0.359840000000D+05-0.333413481712D-06-0.284555089543D+01-0.197440385819D-06
     0.934387776590D+00 0.196781250000D+03 0.100025692268D+01-0.839070664947D-08
    -0.270011247052D-09 0.100000000000D+01 0.232900000000D+04 0.000000000000D+00
     0.200000000000D+01 0.000000000000D+00 0.232830643654D-08 0.400000000000D+01
     0.288000000000D+05
G29 2024  8 25  9 59 44-0.582016073167D-03 0.227373675443D-11 0.000000000000D+00
     0.900000000000D+01 0.425937500000D+02 0.463233581252D-08-0.275137961830D+01
     0.235438346863D-05 0.294682453387D-02 0.387988984585D-05 0.515378008652D+04
     0.359840000000D+05-0.614672899246D-07-0.576868779163D+00 0.577419996262D-07
     0.970078482177D+00 0.312000000000D+03 0.265433557822D+01-0.821605651745D-08
     0.492877673191D-10 0.100000000000D+01 0.232900000000D+04 0.000000000000D+00
     0.200000000000D+01 0.000000000000D+00-0.977888703346D-08 0.900000000000D+01
     0.319500000000D+05
G01 2024 08 25 10 00 00 0.213854014874D-03-0.875388650456D-11 0.000000000000D+00
     0.210000000000D+02 0.785000000000D+02 0.583381443036D-08-0.126558155440D+01
     0.435486435890D-05 0.133813676657D-01 0.812858343124D-05 0.515361373138D+04
     0.360000000000D+05 0.260770320892D-06-0.168427048760D+01 0.216066837311D-06
     0.953579194687D+00 0.217250000000D+03 0.103529253501D+01-0.808426531353D-08
     0.921466954226D-10 0.100000000000D+01 0.232900000000D+04 0.000000000000D+00
     0.200000000000D+01 0.100000000000D+01-0.195577740669D-07 0.210000000000D+02
     0.288180000000D+05
G02 2024 08 25 10 00 00-0.371902715415D-03 0.773070496507D-11 0.000000000000D+00
     0.100000000000D+01-0.600937500000D+02 0.442447001122D-08-0.253142914777D+01
    -0.285916030407D-05 0.160829413217D-01 0.572390854359D-05 0.515369305611D+04
     0.360000000000D+05-0.149011611938D-07 0.309912206733D+00 0.245869159698D-06
     0.967318823272D+00 0.267500000000D+03-0.114287747771D+01-0.786675625340D-08
    -0.124290891500D-09 0.100000000000D+01 0.232900000000D+04 0.000000000000D+00
     0.200000000000D+01 0.000000000000D+00-0.176951289177D-07 0.257000000000D+03
     0.288000000000D+05
G03 2024 08 25 10 00 00 0.513297040016D-03 0.144382283907D-10 0.000000000000D+00
     0.129000000000D+03-0.304062500000D+02 0.389659088008D-08 0.192715946387D+00
    -0.156275928020D-05 0.574397621676D-02 0.959262251854D-05 0.515367437744D+04
     0.360000000000D+05-0.111758708954D-06 0.144617970854D+01 0.931322574615D-07
     0.985470096374D+00 0.206281250000D+03 0.115136536205D+01-0.779461039109D-08
     0.217509060125D-09 0.100000000000D+01 0.232900000000D+04 0.000000000000D+00
     0.200000000000D+01 0.000000000000D+00 0.139698386192D-08 0.129000000000D+03
     0.288000000000D+05
G04 2024 08 25 10 00 00 0.430919695646D-03 0.738964445190D-11 0.000000000000D+00
     0.210000000000D+02-0.224375000000D+02 0.461376361035D-08-0.303048329108D+01
    -0.119768083096D-05 0.296302151401D-02 0.644102692604D-05 0.515370468903D+04
     0.360000000000D+05-0.931322574616D-08 0.252425374672D+01-0.186264514923D-08
     0.965733492596D+00 0.257750000000D+03-0.299116193150D+01-0.802676291832D-08
     0.832177520677D-10 0.100000000000D+01 0.232900000000D+04 0.000000000000D+00
     0.200000000000D+01 0.000000000000D+00-0.465661287308D-08 0.210000000000D+02
     0.288000000000D+05
G05 2024 08 25 10 00 00-0.184369273484D-03-0.125055521494D-11 0.000000000000D+00
     0.500000000000D+02-0.478125000000D+02 0.407981279772D-08-0.238092317464D+01
    -0.238046050072D-05 0.593836628832D-02 0.911951065063D-05 0.515366540909D+04
     0.360000000000D+05 0.819563865662D-07 0.139364741019D+01 0.540167093277D-07
     0.972405883900D+00 0.210156250000D+03 0.131628674854D+01-0.773853662683D-08
     0.233581158164D-09 0.100000000000D+01 0.232900000000D+04 0.000000000000D+00
     0.200000000000D+01 0.000000000000D+00-0.107102096081D-07 0.500000000000D+02
     0.288000000000D+05
G06 2024 08 25 10 00 00 0.757635571063D-04-0.248974174610D-10 0.000000000000D+00
     0.350000000000D+02-0.811562500000D+02 0.397266547746D-08 0.165806557544D+01
    -0.407733023167D-05 0.298177264631D-02 0.631250441074D-05 0.515368395805D+04
     0.360000000000D+05 0.521540641785D-07 0.410161868980D+00-0.223517417908D-07
     0.989826656173D+00 0.269062500000D+03-0.744542110585D+00-0.791247244338D-08
    -0.313227332890D-09 0.100000000000D+01 0.232900000000D+04 0.000000000000D+00
     0.200000000000D+01 0.000000000000D+00 0.372529029846D-08 0.350000000000D+02
     0.288000000000D+05
G07 2024 08 25 10 00 00-0.466438941658D-04 0.545696821064D-11 0.000000000000D+00
     0.940000000000D+02-0.687500000000D+01 0.477055585566D-08 0.744274415594D+00
    -0.286847352982D-06 0.187160455389D-01 0.951625406742D-05 0.515361296272D+04
     0.360000000000D+05-0.277534127235D-06-0.274697241228D+01 0.596046447754D-07
     0.950626445224D+00 0.195468750000D+03-0.210400351713D+01-0.827713048999D-08
    -0.441804117201D-09 0.100000000000D+01 0.232900000000D+04 0.000000000000D+00
     0.200000000000D+01 0.000000000000D+00-0.111758708954D-07 0.940000000000D+02
     0.288000000000D+05
G08 2024 08 25 10 00 00 0.328632071614D-03 0.139834810398D-10 0.000000000000D+00
     0.100000000000D+03 0.430000000000D+02 0.499556522820D-08-0.270094595786D+01
     0.213831663132D-05 0.957440736238D-02 0.337138772011D-05 0.515367329407D+04
     0.360000000000D+05-0.540167093277D-07-0.688205344549D+00-0.167638063431D-06
     0.951763849402D+00 0.313593750000D+03 0.368151061781D+00-0.833284709653D-08
     0.675028117631D-10 0.100000000000D+01 0.232900000000D+04 0.000000000000D+00
     0.200000000000D+01 0.000000000000D+00 0.465661287308D-08 0.100000000000D+03
     0.288000000000D+05
G09 2024 08 25 10 00 00 0.328520778567D-03 0.156887836056D-10 0.000000000000D+00
     0.290000000000D+02-0.202812500000D+02 0.476591280511D-08-0.220539482894D+01
    -0.109523534775D-05 0.302306225058D-02 0.640563666821D-05 0.515360038757D+04
     0.360000000000D+05 0.577419996262D-07 0.246404317946D+01 0.651925802231D-07
     0.959366827765D+00 0.255781250000D+03 0.197255131028D+01-0.810248035797D-08
     0.739316509786D-10 0.100000000000D+01 0.232900000000D+04 0.000000000000D+00
     0.200000000000D+01 0.000000000000D+00 0.931322574616D-09 0.290000000000D+02
     0.288000000000D+05
G10 2024 08 25 10 00 00-0.104334671050D-03-0.114823706099D-10 0.000000000000D+00
     0.770000000000D+02-0.350937500000D+02 0.391302013585D-08-0.730368375689D+00
    -0.200420618057D-05 0.954950763844D-02 0.849738717079D-05 0.515368829918D+04
     0.360000000000D+05 0.875443220139D-07 0.144363006176D+01 0.163912773132D-06
     0.985117667705D+00 0.229312500000D+03-0.238120826665D+01-0.784889836669D-08
     0.842892252703D-10 0.100000000000D+01 0.232900000000D+04 0.000000000000D+00
     0.280000000000D+01 0.000000000000D+00 0.232830643654D-08 0.770000000000D+02
     0.288000000000D+05
G11 2024 08 25 10 00 00-0.726304017007D-03-0.511590769747D-11 0.000000000000D+00
     0.182000000000D+03-0.762187500000D+02 0.438589697593D-08 0.281467125927D+01
    -0.399351119995D-05 0.162410724443D-02 0.616349279880D-05 0.515376460075D+04
     0.360000000000D+05-0.204890966415D-07 0.441213912959D+00 0.558793544769D-08
     0.966398612690D+00 0.263250000000D+03-0.256136360865D+01-0.811533803640D-08
    -0.247867467532D-09 0.100000000000D+01 0.232900000000D+04 0.000000000000D+00
     0.200000000000D+01 0.000000000000D+00-0.884756445885D-08 0.438000000000D+03
     0.288000000000D+05
G12 2024  8 25 10  0  0-0.533025711775D-03-0.284217094304D-11 0.000000000000D+00
     0.530000000000D+02 0.915937500000D+02 0.445125684129D-08 0.138309863561D-01
     0.449083745480D-05 0.866900943220D-02 0.939145684242D-05 0.515361001778D+04
     0.360000000000D+05-0.149011611938D-06-0.163100557157D+01 0.447034835815D-07
     0.961514239362D+00 0.201812500000D+03 0.146243531338D+01-0.814676791701D-08
     0.105361531588D-09 0.100000000000D+01 0.232900000000D+04 0.000000000000D+00
     0.200000000000D+01 0.000000000000D+00-0.125728547573D-07 0.530000000000D+02
     0.288000000000D+05
G13 2024 08 25 10 00 00 0.672804657370D-03 0.216004991671D-11 0.000000000000D+00
     0.109000000000D+03-0.301875000000D+02 0.432910889619D-08-0.299924594805D+01
    -0.149570405483D-05 0.852449715603D-02 0.680983066559D-05 0.515369049835D+04
     0.360000000000D+05 0.353902578354D-07 0.263128903013D+01-0.335276126862D-07
     0.972218803010D+00 0.253218750000D+03 0.949926781246D+00-0.775818030221D-08
     0.982183769039D-10 0.100000000000D+01 0.232900000000D+04 0.000000000000D+00
     0.200000000000D+01 0.000000000000D+00-0.111758708954D-07 0.109000000000D+03
     0.288180000000D+05
